CCSDS_OMM_VERS = 2.0
CREATION_DATE  = 
ORIGINATOR     = 

OBJECT_NAME    = IDEFIX & ARIANE 42P R/B
OBJECT_ID      = 2002-021B
CENTER_NAME    = EARTH
REF_FRAME      = TEME
TIME_SYSTEM    = UTC
MEAN_ELEMENT_THEORY = SGP/SGP4

EPOCH          = 2026-03-05T02:10:53.773824
MEAN_MOTION    = 14.31022149
ECCENTRICITY   = .0011306
INCLINATION    = 98.5866
RA_OF_ASC_NODE = 2.7522
ARG_OF_PERICENTER = 196.0376
MEAN_ANOMALY   = 164.0450

EPHEMERIS_TYPE = 0
CLASSIFICATION_TYPE = U
NORAD_CAT_ID   = 27422
ELEMENT_SET_NO = 999
REV_AT_EPOCH   = 24336
BSTAR          = .15701E-3
MEAN_MOTION_DOT = .37E-5
MEAN_MOTION_DDOT = 0

CCSDS_OMM_VERS = 2.0
CREATION_DATE  = 
ORIGINATOR     = 

OBJECT_NAME    = AQUA
OBJECT_ID      = 2002-022A
CENTER_NAME    = EARTH
REF_FRAME      = TEME
TIME_SYSTEM    = UTC
MEAN_ELEMENT_THEORY = SGP/SGP4

EPOCH          = 2026-03-05T04:08:58.827840
MEAN_MOTION    = 14.61963622
ECCENTRICITY   = .0000614
INCLINATION    = 98.4168
RA_OF_ASC_NODE = 31.4558
ARG_OF_PERICENTER = 62.2684
MEAN_ANOMALY   = 27.6049

EPHEMERIS_TYPE = 0
CLASSIFICATION_TYPE = U
NORAD_CAT_ID   = 27424
ELEMENT_SET_NO = 999
REV_AT_EPOCH   = 26807
BSTAR          = .28987E-3
MEAN_MOTION_DOT = .1403E-4
MEAN_MOTION_DDOT = 0

CCSDS_OMM_VERS = 2.0
CREATION_DATE  = 
ORIGINATOR     = 

OBJECT_NAME    = CZ-4B R/B
OBJECT_ID      = 2002-024C
CENTER_NAME    = EARTH
REF_FRAME      = TEME
TIME_SYSTEM    = UTC
MEAN_ELEMENT_THEORY = SGP/SGP4

EPOCH          = 2026-03-05T02:43:20.674272
MEAN_MOTION    = 14.14546730
ECCENTRICITY   = .005069
INCLINATION    = 98.8848
RA_OF_ASC_NODE = 117.5430
ARG_OF_PERICENTER = 37.0917
MEAN_ANOMALY   = 343.9436

EPHEMERIS_TYPE = 0
CLASSIFICATION_TYPE = U
NORAD_CAT_ID   = 27432
ELEMENT_SET_NO = 999
REV_AT_EPOCH   = 22859
BSTAR          = .58626E-4
MEAN_MOTION_DOT = .7E-6
MEAN_MOTION_DDOT = 0

CCSDS_OMM_VERS = 2.0
CREATION_DATE  = 
ORIGINATOR     = 

OBJECT_NAME    = MIDORI II (ADEOS-II)
OBJECT_ID      = 2002-056A
CENTER_NAME    = EARTH
REF_FRAME      = TEME
TIME_SYSTEM    = UTC
MEAN_ELEMENT_THEORY = SGP/SGP4

EPOCH          = 2026-03-04T11:36:00.334944
MEAN_MOTION    = 14.29280605
ECCENTRICITY   = .0001781
INCLINATION    = 98.7761
RA_OF_ASC_NODE = 21.9252
ARG_OF_PERICENTER = 50.0959
MEAN_ANOMALY   = 310.0379

EPHEMERIS_TYPE = 0
CLASSIFICATION_TYPE = U
NORAD_CAT_ID   = 27597
ELEMENT_SET_NO = 999
REV_AT_EPOCH   = 20955
BSTAR          = .19793252E-3
MEAN_MOTION_DOT = .458E-5
MEAN_MOTION_DDOT = 0

CCSDS_OMM_VERS = 2.0
CREATION_DATE  = 
ORIGINATOR     = 

OBJECT_NAME    = H-2A R/B
OBJECT_ID      = 2002-056E
CENTER_NAME    = EARTH
REF_FRAME      = TEME
TIME_SYSTEM    = UTC
MEAN_ELEMENT_THEORY = SGP/SGP4

EPOCH          = 2026-03-05T03:52:28.598304
MEAN_MOTION    = 14.33757125
ECCENTRICITY   = .0070225
INCLINATION    = 98.3195
RA_OF_ASC_NODE = 24.6996
ARG_OF_PERICENTER = 174.1102
MEAN_ANOMALY   = 196.8039

EPHEMERIS_TYPE = 0
CLASSIFICATION_TYPE = U
NORAD_CAT_ID   = 27601
ELEMENT_SET_NO = 999
REV_AT_EPOCH   = 21346
BSTAR          = .13438E-3
MEAN_MOTION_DOT = .342E-5
MEAN_MOTION_DDOT = 0

CCSDS_OMM_VERS = 2.0
CREATION_DATE  = 
ORIGINATOR     = 

OBJECT_NAME    = CZ-4B R/B
OBJECT_ID      = 2003-049C
CENTER_NAME    = EARTH
REF_FRAME      = TEME
TIME_SYSTEM    = UTC
MEAN_ELEMENT_THEORY = SGP/SGP4

EPOCH          = 2026-03-04T12:01:25.989600
MEAN_MOTION    = 14.55014781
ECCENTRICITY   = .00470753
INCLINATION    = 98.6874
RA_OF_ASC_NODE = 58.2023
ARG_OF_PERICENTER = 247.0745
MEAN_ANOMALY   = 112.5479

EPHEMERIS_TYPE = 0
CLASSIFICATION_TYPE = U
NORAD_CAT_ID   = 28059
ELEMENT_SET_NO = 999
REV_AT_EPOCH   = 18584
BSTAR          = .15405097E-3
MEAN_MOTION_DOT = .621E-5
MEAN_MOTION_DDOT = 0

CCSDS_OMM_VERS = 2.0
CREATION_DATE  = 
ORIGINATOR     = 

OBJECT_NAME    = CZ-2C R/B
OBJECT_ID      = 2004-012C
CENTER_NAME    = EARTH
REF_FRAME      = TEME
TIME_SYSTEM    = UTC
MEAN_ELEMENT_THEORY = SGP/SGP4

EPOCH          = 2026-03-05T03:08:40.002720
MEAN_MOTION    = 15.63888420
ECCENTRICITY   = .0013091
INCLINATION    = 97.7237
RA_OF_ASC_NODE = 128.9931
ARG_OF_PERICENTER = 328.0997
MEAN_ANOMALY   = 31.9467

EPHEMERIS_TYPE = 0
CLASSIFICATION_TYPE = U
NORAD_CAT_ID   = 28222
ELEMENT_SET_NO = 999
REV_AT_EPOCH   = 20356
BSTAR          = .63464E-3
MEAN_MOTION_DOT = .60023E-3
MEAN_MOTION_DDOT = 0

CCSDS_OMM_VERS = 2.0
CREATION_DATE  = 
ORIGINATOR     = 

OBJECT_NAME    = SL-16 R/B
OBJECT_ID      = 2004-021B
CENTER_NAME    = EARTH
REF_FRAME      = TEME
TIME_SYSTEM    = UTC
MEAN_ELEMENT_THEORY = SGP/SGP4

EPOCH          = 2026-03-04T18:57:34.824096
MEAN_MOTION    = 14.14599381
ECCENTRICITY   = .0003755
INCLINATION    = 70.9991
RA_OF_ASC_NODE = 242.7753
ARG_OF_PERICENTER = 18.9321
MEAN_ANOMALY   = 341.1940

EPHEMERIS_TYPE = 0
CLASSIFICATION_TYPE = U
NORAD_CAT_ID   = 28353
ELEMENT_SET_NO = 999
REV_AT_EPOCH   = 12214
BSTAR          = -.6426E-4
MEAN_MOTION_DOT = -.171E-5
MEAN_MOTION_DDOT = 0

CCSDS_OMM_VERS = 2.0
CREATION_DATE  = 
ORIGINATOR     = 

OBJECT_NAME    = CZ-4B R/B
OBJECT_ID      = 2004-035C
CENTER_NAME    = EARTH
REF_FRAME      = TEME
TIME_SYSTEM    = UTC
MEAN_ELEMENT_THEORY = SGP/SGP4

EPOCH          = 2026-03-05T01:35:37.806720
MEAN_MOTION    = 15.28964869
ECCENTRICITY   = .0031447
INCLINATION    = 97.3500
RA_OF_ASC_NODE = 98.3639
ARG_OF_PERICENTER = 348.3803
MEAN_ANOMALY   = 11.6708

EPHEMERIS_TYPE = 0
CLASSIFICATION_TYPE = U
NORAD_CAT_ID   = 28415
ELEMENT_SET_NO = 999
REV_AT_EPOCH   = 17920
BSTAR          = .35135E-3
MEAN_MOTION_DOT = .9957E-4
MEAN_MOTION_DDOT = 0

CCSDS_OMM_VERS = 2.0
CREATION_DATE  = 
ORIGINATOR     = 

OBJECT_NAME    = CZ-2C R/B
OBJECT_ID      = 2004-046B
CENTER_NAME    = EARTH
REF_FRAME      = TEME
TIME_SYSTEM    = UTC
MEAN_ELEMENT_THEORY = SGP/SGP4

EPOCH          = 2026-03-04T23:57:03.655872
MEAN_MOTION    = 14.26990188
ECCENTRICITY   = .0139608
INCLINATION    = 98.1987
RA_OF_ASC_NODE = 339.2738
ARG_OF_PERICENTER = 168.2773
MEAN_ANOMALY   = 192.1716

EPHEMERIS_TYPE = 0
CLASSIFICATION_TYPE = U
NORAD_CAT_ID   = 28480
ELEMENT_SET_NO = 999
REV_AT_EPOCH   = 10783
BSTAR          = .69041E-4
MEAN_MOTION_DOT = .146E-5
MEAN_MOTION_DDOT = 0

CCSDS_OMM_VERS = 2.0
CREATION_DATE  = 
ORIGINATOR     = 

OBJECT_NAME    = ARIANE 5 R/B
OBJECT_ID      = 2004-049H
CENTER_NAME    = EARTH
REF_FRAME      = TEME
TIME_SYSTEM    = UTC
MEAN_ELEMENT_THEORY = SGP/SGP4

EPOCH          = 2026-03-05T01:14:19.479840
MEAN_MOTION    = 14.85255601
ECCENTRICITY   = .0084269
INCLINATION    = 98.2618
RA_OF_ASC_NODE = 232.3352
ARG_OF_PERICENTER = 6.9702
MEAN_ANOMALY   = 353.2662

EPHEMERIS_TYPE = 0
CLASSIFICATION_TYPE = U
NORAD_CAT_ID   = 28499
ELEMENT_SET_NO = 999
REV_AT_EPOCH   = 14510
BSTAR          = .11931E-3
MEAN_MOTION_DOT = .1026E-4
MEAN_MOTION_DDOT = 0

CCSDS_OMM_VERS = 2.0
CREATION_DATE  = 
ORIGINATOR     = 

OBJECT_NAME    = CZ-2D R/B
OBJECT_ID      = 2005-024B
CENTER_NAME    = EARTH
REF_FRAME      = TEME
TIME_SYSTEM    = UTC
MEAN_ELEMENT_THEORY = SGP/SGP4

EPOCH          = 2026-03-05T00:38:09.737376
MEAN_MOTION    = 15.59659857
ECCENTRICITY   = .000647
INCLINATION    = 97.3597
RA_OF_ASC_NODE = 79.0025
ARG_OF_PERICENTER = 59.0946
MEAN_ANOMALY   = 301.0946

EPHEMERIS_TYPE = 0
CLASSIFICATION_TYPE = U
NORAD_CAT_ID   = 28738
ELEMENT_SET_NO = 999
REV_AT_EPOCH   = 13905
BSTAR          = .56275E-3
MEAN_MOTION_DOT = .44976E-3
MEAN_MOTION_DDOT = 0

