IDEFIX & ARIANE 42P R/B 
1 27422U 02021B   26064.09090016  .00000370  00000+0  15701-3 0  9991
2 27422  98.5866   2.7522 0011306 196.0376 164.0450 14.31022149243367
AQUA                    
1 27424U 02022A   26064.17290310  .00001403  00000+0  28987-3 0  9990
2 27424  98.4168  31.4558 0000614  62.2684  27.6049 14.61963622268073
CZ-4B R/B               
1 27432U 02024C   26064.11343373  .00000070  00000+0  58626-4 0  9996
2 27432  98.8848 117.5430 0050690  37.0917 343.9436 14.14546730228596
MIDORI II (ADEOS-II)    
1 27597U 02056A   26063.48333721  .00000458  00000+0  19793-3 0  9999
2 27597  98.7761  21.9252 0001781  50.0959 310.0379 14.29280605209557
H-2A R/B                
1 27601U 02056E   26064.16144211  .00000342  00000+0  13438-3 0  9997
2 27601  98.3195  24.6996 0070225 174.1102 196.8039 14.33757125213461
CZ-4B R/B               
1 28059U 03049C   26063.50099525  .00000621  00000+0  15405-3 0  9998
2 28059  98.6874  58.2023 0047075 247.0745 112.5479 14.55014781185841
CZ-2C R/B               
1 28222U 04012C   26064.13101855  .00060023  00000+0  63464-3 0  9991
2 28222  97.7237 128.9931 0013091 328.0997  31.9467 15.63888420203569
SL-16 R/B               
1 28353U 04021B   26063.78998639 -.00000171  00000+0 -64260-4 0  9996
2 28353  70.9991 242.7753 0003755  18.9321 341.1940 14.14599381122149
CZ-4B R/B               
1 28415U 04035C   26064.06640980  .00009957  00000+0  35135-3 0  9992
2 28415  97.3500  98.3639 0031447 348.3803  11.6708 15.28964869179202
CZ-2C R/B               
1 28480U 04046B   26063.99795898  .00000146  00000+0  69041-4 0  9991
2 28480  98.1987 339.2738 0139608 168.2773 192.1716 14.26990188107836
ARIANE 5 R/B            
1 28499U 04049H   26064.05161435  .00001026  00000+0  11931-3 0  9998
2 28499  98.2618 232.3352 0084269   6.9702 353.2662 14.85255601145106
CZ-2D R/B               
1 28738U 05024B   26064.02650159  .00044976  00000+0  56275-3 0  9992
2 28738  97.3597  79.0025 0006470  59.0946 301.0946 15.59659857139054
